OSIRIS-3U               
1 43027U 98067NL  18349.98820026  .00078614  00000-0  40595-3 0  9998
2 43027  51.6349 161.6173 0003485 182.9072 177.1910 15.80408740 60997
AEROCUBE 7B             
1 43042U 17071F   18349.95468914  .00002266  00000-0  65834-4 0  9996
2 43042  51.6380 235.2663 0004640 196.3711 163.7124 15.39995968 57603
AEROCUBE 7C             
1 43043U 17071G   18349.95469384  .00002356  00000-0  68055-4 0  9997
2 43043  51.6383 235.2755 0004740 198.0218 162.0599 15.39990904 57570
CHEFSAT                 
1 43044U 17071H   18349.94471108  .00005005  00000-0  12619-3 0  9992
2 43044  51.6386 233.0197 0004617 194.7529 165.3322 15.41693361 57605
ASGARDIA 1              
1 43049U 17071N   18349.92112573  .00001930  00000-0  57314-4 0  9998
2 43049  51.6389 235.0660 0002050 209.1770 150.9100 15.40112142 57570
ISARA                   
1 43050U 17071P   18349.90911740  .00003438  00000-0  90680-4 0  9999
2 43050  51.6380 233.5114 0001950 199.5820 160.5090 15.41352123 57599
FAUNA                   
1 43052U 17071R   18349.89027045  .00002496  00000-0  70779-4 0  9995
2 43052  51.6387 234.8741 0001965 202.9050 157.1847 15.40310936 57562
CORVUS BC3              
1 43118U 18004H   18349.94563114  .00000629  00000-0  30182-4 0  9993
2 43118  97.5120  52.6923 0010775 170.7318 189.4119 15.22543505 51367
MICROMAS-2A             
1 43131U 18004W   18349.75430722  .00001464  00000-0  64445-4 0  9992
2 43131  97.5135  52.8337 0009834 173.4756 186.6610 15.23441093 51353
CICERO 7                
1 43143U 18004AJ  18349.73631254  .00001219  00000-0  53757-4 0  9998
2 43143  97.5127  52.9991 0007639 180.5390 179.5840 15.23707204 51364
GOMX4-B                 
1 43196U 18015E   18349.98676970 -.00000070  00000-0  60618-7 0  9991
2 43196  97.3655 115.4760 0018009 235.8836 124.0691 15.23772961 48218
GOMX4-A                 
1 43197U 18015F   18350.13006039  .00000370  00000-0  18257-4 0  9995
2 43197  97.3693 115.6250 0017777 235.4521 228.3570 15.23850578 48243
1KUNS-PF                
1 43466U 98067NP  18349.99539067  .00009929  00000-0  12669-3 0  9992
2 43466  51.6381 187.3138 0001404 131.9320 228.1793 15.59973278 34036
UBAKUSAT                
1 43467U 98067NQ  18350.00079127  .00006931  00000-0  94637-4 0  9999
2 43467  51.6375 188.0987 0003230 100.6399 259.4957 15.58728707 34031
BATSU-CS1 (IRAZU)       
1 43468U 98067NR  18349.80704622  .00012484  00000-0  15210-3 0  9990
2 43468  51.6377 187.5550 0001387 136.8126 223.2977 15.60918091134003
CUBERRT                 
1 43546U 98067NU  18349.91150314  .00006981  00000-0  96081-4 0  9993
2 43546  51.6375 190.4932 0006466 154.5307 205.6005 15.58496957 24122
TEMPEST-D               
1 43547U 98067NV  18349.86729157  .00002943  00000-0  48456-4 0  9992
2 43547  51.6382 191.6936 0006550 147.1553 212.9846 15.55982545 23788
RAINCUBE                
1 43548U 98067NW  18349.82332370  .00006009  00000-0  87614-4 0  9992
2 43548  51.6380 191.4017 0006540 158.4252 201.7016 15.57219913 24235
HALOSAT                 
1 43549U 98067NX  18349.82360206  .00005656  00000-0  82776-4 0  9993
2 43549  51.6382 191.4051 0006365 160.4228 199.7009 15.57251198 23796
ENDUROSAT ONE           
1 43551U 98067NZ  18349.77934274  .00008684  00000-0  12052-3 0  9995
2 43551  51.6377 191.1070 0006952 166.7749 193.3426 15.57896136 24207
EQUISAT                 
1 43552U 98067PA  18349.86057769  .00007140  00000-0  10179-3 0  9995
2 43552  51.6378 190.9013 0007186 167.2012 192.9164 15.57492702 24173
AEROCUBE 12A            
1 43556U 18046C   18349.87351497  .00001204  00000-0  56094-4 0  9996
2 43556  51.6413 222.7936 0009188 127.2577 232.9242 15.28108176 23292
AEROCUBE 12B            
1 43557U 18046D   18350.13757153  .00000924  00000-0  46099-4 0  9999
2 43557  51.6412 221.5554 0009177 128.1312 232.0496 15.28051818 23281
UITMSAT-1               
1 43589U 98067PD  18349.78390866  .00007951  00000-0  11391-3 0  9991
2 43589  51.6376 191.8848 0006488 174.0629 186.0440 15.57172980 19898
MAYA-1                  
1 43590U 98067PE  18349.78167836  .00008004  00000-0  11452-3 0  9990
2 43590  51.6376 191.8705 0006552 174.8163 185.2898 15.57198427 19820
BHUTAN-1                
1 43591U 98067PF  18349.84258593  .00008309  00000-0  11843-3 0  9991
2 43591  51.6377 191.5277 0006672 176.0825 184.0220 15.57242465 19834
SIRIUSSAT-1             
1 43595U 98067PG  18349.88071979  .00007191  00000-0  10536-3 0  9996
2 43595  51.6374 191.7777 0004541 132.9231 227.2143 15.56739334 19016
SIRIUSSAT-2             
1 43596U 98067PH  18349.89220584  .00007294  00000-0  10737-3 0  9993
2 43596  51.6384 191.8664 0005184 135.6590 224.4818 15.56583144 19010
TANUSHA-3               
1 43597U 98067PJ  18349.87448213  .00009218  00000-0  13149-3 0  9991
2 43597  51.6363 191.7236 0004702 147.3301 212.7983 15.57071463 19017
SURFSAT                 
1 43614U 18070B   18350.09511816  .00002359  00000-0  65983-4 0  9996
2 43614  93.0363 287.3476 0014157 303.5931  56.3970 15.36661399 14052
CP-7 (DAVE)             
1 43615U 18070C   18349.89964796  .00002108  00000-0  59014-4 0  9992
2 43615  93.0363 287.2676 0014215 304.1400  55.8503 15.36646112 14026
ELFIN-B                 
1 43616U 18070D   18350.08784680  .00003161  00000-0  87715-4 0  9997
2 43616  93.0333 287.3076 0015429 307.3174  52.6673 15.36869700 14056
ELFIN-A                 
1 43617U 18070E   18349.89060611  .00003335  00000-0  92466-4 0  9998
2 43617  93.0384 287.2981 0014370 304.2274  55.7617 15.36905333 14020
DEBRISSAT-1             
1 43621U 98067PM  18349.85424771  .00076885  00000-0  71473-3 0  9998
2 43621  51.6434 188.6625 0007159 176.6596 183.4446 15.66693229 14047
CUBEBEL-1 (BSUSAT-1)    
1 43666U 18083E   18350.10550082  .00001012  00000-0  54234-4 0  9999
2 43666  97.5353  10.7239 0016912 107.3662 340.8680 15.17186860  7295
DEBRISSAT-2             
1 43680U 98067PR  18349.93221156  .00011277  00000-0  16173-3 0  9994
2 43680  51.6380 191.3646 0004107 155.7170 204.4014 15.56663424 27763
CICERO 10               
1 43690U 18088A   18349.76789353  .00001025  00000-0  46577-4 0  9991
2 43690  85.0395  80.2128 0016263 158.0748 202.1192 15.19295594  5266
IRVINE01                
1 43693U 18088D   18349.80568806  .00002231  00000-0  99607-4 0  9999
2 43693  85.0368  80.1315 0020297 147.1429 213.1079 15.20570503  5267
PROXIMA I               
1 43694U 18088E   18350.05692762  .00000890  00000-0  38026-4 0  9995
2 43694  85.0338  79.9284 0021207 138.0957 222.1913 15.21049984  5300
PROXIMA II              
1 43696U 18088G   18349.92519315  .00000884  00000-0  37767-4 0  9997
2 43696  85.0338  80.0155 0021229 138.5187 221.7671 15.21055607  5288
FACSAT-1                
1 43721U 18096C   18350.14809407  .00001080  00000-0  45116-4 0  9991
2 43721  97.4835  55.1488 0016809 258.9681 100.9667 15.25744148  2595
CENTAURI-2              
1 43722U 18096D   18350.21283700  .00001455  00000-0  59604-4 0  9995
2 43722  97.4836  55.2158 0016936 259.6789 100.2540 15.25826982  2590
